0 DELTA 1 DEB
1 10748U 76077AV  13281.69317282  .00000011  00000-0  46322-3 0  9408
2 10748 101.9424 291.1580 0073024 192.0602 220.7617 12.29361860669313
0 DELTA 1 DEB
1 10748U 76077AV  13283.81389079  .00000019  00000-0  52713-3 0  9417
2 10748 101.9420 293.1971 0073052 188.1995 246.4151 12.29361987669573
0 DELTA 1 DEB
1 10748U 76077AV  13286.00737765  .00000007  00000-0  42300-3 0  9429
2 10748 101.9416 295.3060 0073071 184.1906 234.1380 12.29362250669842
0 DELTA 1 DEB
1 10748U 76077AV  13288.62462622 -.00000007  00000-0  30689-3 0  9435
2 10748 101.9413 297.8220 0073102 179.4082 297.3061 12.29362733670161
0 DELTA 1 DEB
1 10748U 76077AV  13290.97090065 -.00000025  00000-0  15473-3 0  9449
2 10748 101.9414 300.0772 0073124 175.1390 241.2079 12.29362977670459
0 DELTA 1 DEB
1 10748U 76077AV  13293.00574979 -.00000017  00000-0  22239-3 0  9457
2 10748 101.9417 302.0331 0073132 171.4387 246.8356 12.29363018670703
0 DELTA 1 DEB
1 10748U 76077AV  13295.04259370 -.00000010  00000-0  28170-3 0  9462
2 10748 101.9418 303.9909 0073141 167.7317 261.2948 12.29363029670953
